{"type": "FeatureCollection", "features": [ {"type": "Feature", "properties": {"norad_id": 37996, "name": "COSMOS 2251 DEB", "group": "cosmos-2251-debris", "lat": -73.87612353042105, "lon": 106.79979091568906, "alt_km": 757.2456611772541, "timestamp": "2025-12-11T08:58:27.523423+00:00", "meta": {"OBJECT_NAME": "COSMOS 2251 DEB", "OBJECT_ID": "1993-036BQX", "EPOCH": "2025-11-16T18:35:00.708864", "MEAN_MOTION": 14.09591608, "ECCENTRICITY": 0.02219827, "INCLINATION": 74.0658, "RA_OF_ASC_NODE": 248.8308, "ARG_OF_PERICENTER": 5.4709, "MEAN_ANOMALY": 354.8776, "EPHEMERIS_TYPE": 0, "CLASSIFICATION_TYPE": "U", "NORAD_CAT_ID": 37996, "ELEMENT_SET_NO": 999, "REV_AT_EPOCH": 55769, "BSTAR": 0.0096790999, "MEAN_MOTION_DOT": 0.00021331, "MEAN_MOTION_DDOT": 0}, "tle": {"line1": "1 37996U 93036BQX 25320.77431376  .00021331  00000+0  96791-2 0  9998", "line2": "2 37996  74.0658 248.8308 0221982   5.4709 354.8776 14.09591608557693"}}, "geometry": {"type": "Point", "coordinates": [106.79979091568906, -73.87612353042105]}}, {"type": "Feature", "properties": {"norad_id": 37998, "name": "COSMOS 2251 DEB", "group": "cosmos-2251-debris", "lat": 74.0268134658802, "lon": -33.279033314820076, "alt_km": 743.6120897775854, "timestamp": "2025-12-11T08:58:27.523433+00:00", "meta": {"OBJECT_NAME": "COSMOS 2251 DEB", "OBJECT_ID": "1993-036BQZ", "EPOCH": "2025-12-07T01:34:33.386016", "MEAN_MOTION": 14.45444842, "ECCENTRICITY": 0.00199405, "INCLINATION": 74.0387, "RA_OF_ASC_NODE": 245.6796, "ARG_OF_PERICENTER": 320.6712, "MEAN_ANOMALY": 39.2997, "EPHEMERIS_TYPE": 0, "CLASSIFICATION_TYPE": "U", "NORAD_CAT_ID": 37998, "ELEMENT_SET_NO": 999, "REV_AT_EPOCH": 64205, "BSTAR": 0.00093558552, "MEAN_MOTION_DOT": 3.277e-05, "MEAN_MOTION_DDOT": 0}, "tle": {"line1": "1 37998U 93036BQZ 25341.06566419  .00003277  00000+0  93559-3 0  9991", "line2": "2 37998  74.0387 245.6796 0019940 320.6712  39.2997 14.45444842642056"}}, "geometry": {"type": "Point", "coordinates": [-33.279033314820076, 74.0268134658802]}}, {"type": "Feature", "properties": {"norad_id": 38001, "name": "COSMOS 2251 DEB", "group": "cosmos-2251-debris", "lat": -57.770824301140564, "lon": -17.907812152274552, "alt_km": 605.4373576867902, "timestamp": "2025-12-11T08:58:27.523444+00:00", "meta": {"OBJECT_NAME": "COSMOS 2251 DEB", "OBJECT_ID": "1993-036BRC", "EPOCH": "2025-12-10T21:13:30.070848", "MEAN_MOTION": 14.79039652, "ECCENTRICITY": 0.0065474, "INCLINATION": 74.0007, "RA_OF_ASC_NODE": 135.9844, "ARG_OF_PERICENTER": 285.8073, "MEAN_ANOMALY": 230.7209, "EPHEMERIS_TYPE": 0, "CLASSIFICATION_TYPE": "U", "NORAD_CAT_ID": 38001, "ELEMENT_SET_NO": 999, "REV_AT_EPOCH": 74680, "BSTAR": 0.0012082, "MEAN_MOTION_DOT": 9.24e-05, "MEAN_MOTION_DDOT": 0}, "tle": {"line1": "1 38001U 93036BRC 25344.88437582  .00009240  00000+0  12082-2 0  9995", "line2": "2 38001  74.0007 135.9844 0065474 285.8073 230.7209 14.79039652746809"}}, "geometry": {"type": "Point", "coordinates": [-17.907812152274552, -57.770824301140564]}}, {"type": "Feature", "properties": {"norad_id": 38006, "name": "COSMOS 2251 DEB", "group": "cosmos-2251-debris", "lat": -60.610415161888945, "lon": -108.46339548370133, "alt_km": 755.5291193204193, "timestamp": "2025-12-11T08:58:27.523455+00:00", "meta": {"OBJECT_NAME": "COSMOS 2251 DEB", "OBJECT_ID": "1993-036BRH", "EPOCH": "2025-12-10T03:36:37.956384", "MEAN_MOTION": 14.45867865, "ECCENTRICITY": 0.00758537, "INCLINATION": 73.8744, "RA_OF_ASC_NODE": 42.933, "ARG_OF_PERICENTER": 348.3853, "MEAN_ANOMALY": 11.555, "EPHEMERIS_TYPE": 0, "CLASSIFICATION_TYPE": "U", "NORAD_CAT_ID": 38006, "ELEMENT_SET_NO": 999, "REV_AT_EPOCH": 62922, "BSTAR": 0.0047338847, "MEAN_MOTION_DOT": 0.00017443, "MEAN_MOTION_DDOT": 0}, "tle": {"line1": "1 38006U 93036BRH 25344.15043931  .00017443  00000+0  47339-2 0  9998", "line2": "2 38006  73.8744  42.9330 0075853 348.3853  11.5550 14.45867865629227"}}, "geometry": {"type": "Point", "coordinates": [-108.46339548370133, -60.610415161888945]}}, {"type": "Feature", "properties": {"norad_id": 38054, "name": "COSMOS 2251 DEB", "group": "cosmos-2251-debris", "lat": 51.566787718624596, "lon": -70.70993778014764, "alt_km": 1282.836278825068, "timestamp": "2025-12-11T08:58:27.523465+00:00", "meta": {"OBJECT_NAME": "COSMOS 2251 DEB", "OBJECT_ID": "1993-036BRL", "EPOCH": "2025-12-06T19:35:06.065952", "MEAN_MOTION": 13.62293123, "ECCENTRICITY": 0.0360398, "INCLINATION": 73.9587, "RA_OF_ASC_NODE": 275.4844, "ARG_OF_PERICENTER": 254.7432, "MEAN_ANOMALY": 133.9151, "EPHEMERIS_TYPE": 0, "CLASSIFICATION_TYPE": "U", "NORAD_CAT_ID": 38054, "ELEMENT_SET_NO": 999, "REV_AT_EPOCH": 67099, "BSTAR": 0.0049752628, "MEAN_MOTION_DOT": 5.934e-05, "MEAN_MOTION_DDOT": 0}, "tle": {"line1": "1 38054U 93036BRL 25340.81604243  .00005934  00000+0  49753-2 0  9993", "line2": "2 38054  73.9587 275.4844 0360398 254.7432 133.9151 13.62293123670997"}}, "geometry": {"type": "Point", "coordinates": [-70.70993778014764, 51.566787718624596]}}, {"type": "Feature", "properties": {"norad_id": 38055, "name": "COSMOS 2251 DEB", "group": "cosmos-2251-debris", "lat": 35.4127428589182, "lon": 17.67495351130827, "alt_km": 680.9031865615971, "timestamp": "2025-12-11T08:58:27.523476+00:00", "meta": {"OBJECT_NAME": "COSMOS 2251 DEB", "OBJECT_ID": "1993-036BRM", "EPOCH": "2025-12-10T08:27:42.055776", "MEAN_MOTION": 14.76933211, "ECCENTRICITY": 0.00657477, "INCLINATION": 74.0087, "RA_OF_ASC_NODE": 211.4445, "ARG_OF_PERICENTER": 339.5149, "MEAN_ANOMALY": 134.8402, "EPHEMERIS_TYPE": 0, "CLASSIFICATION_TYPE": "U", "NORAD_CAT_ID": 38055, "ELEMENT_SET_NO": 999, "REV_AT_EPOCH": 60647, "BSTAR": 0.0011717243, "MEAN_MOTION_DOT": 8.521e-05, "MEAN_MOTION_DDOT": 0}, "tle": {"line1": "1 38055U 93036BRM 25344.35257009  .00008521  00000+0  11717-2 0  9995", "line2": "2 38055  74.0087 211.4445 0065747 339.5149 134.8402 14.76933211606475"}}, "geometry": {"type": "Point", "coordinates": [17.67495351130827, 35.4127428589182]}}, {"type": "Feature", "properties": {"norad_id": 38060, "name": "COSMOS 2251 DEB", "group": "cosmos-2251-debris", "lat": 66.3138802401481, "lon": -21.361857373330068, "alt_km": 637.7268885732983, "timestamp": "2025-12-11T08:58:27.523486+00:00", "meta": {"OBJECT_NAME": "COSMOS 2251 DEB", "OBJECT_ID": "1993-036BRS", "EPOCH": "2025-12-11T05:22:06.824640", "MEAN_MOTION": 14.63841303, "ECCENTRICITY": 0.0058042, "INCLINATION": 74.0431, "RA_OF_ASC_NODE": 298.2163, "ARG_OF_PERICENTER": 44.676, "MEAN_ANOMALY": 315.9062, "EPHEMERIS_TYPE": 0, "CLASSIFICATION_TYPE": "U", "NORAD_CAT_ID": 38060, "ELEMENT_SET_NO": 999, "REV_AT_EPOCH": 71942, "BSTAR": 0.00092466, "MEAN_MOTION_DOT": 4.921e-05, "MEAN_MOTION_DDOT": 0}, "tle": {"line1": "1 38060U 93036BRS 25345.22369010  .00004921  00000+0  92466-3 0  9995", "line2": "2 38060  74.0431 298.2163 0058042  44.6760 315.9062 14.63841303719427"}}, "geometry": {"type": "Point", "coordinates": [-21.361857373330068, 66.3138802401481]}}, {"type": "Feature", "properties": {"norad_id": 38062, "name": "COSMOS 2251 DEB", "group": "cosmos-2251-debris", "lat": -62.837967207203114, "lon": 147.21235890982726, "alt_km": 598.6297557122507, "timestamp": "2025-12-11T08:58:27.523496+00:00", "meta": {"OBJECT_NAME": "COSMOS 2251 DEB", "OBJECT_ID": "1993-036BRU", "EPOCH": "2025-12-06T04:12:38.753856", "MEAN_MOTION": 14.94290132, "ECCENTRICITY": 0.00122346, "INCLINATION": 74.0094, "RA_OF_ASC_NODE": 303.7202, "ARG_OF_PERICENTER": 72.1633, "MEAN_ANOMALY": 298.7726, "EPHEMERIS_TYPE": 0, "CLASSIFICATION_TYPE": "U", "NORAD_CAT_ID": 38062, "ELEMENT_SET_NO": 999, "REV_AT_EPOCH": 62932, "BSTAR": 0.0035053507, "MEAN_MOTION_DOT": 0.00037877, "MEAN_MOTION_DDOT": 0}, "tle": {"line1": "1 38062U 93036BRU 25340.17544854  .00037877  00000+0  35054-2 0  9992", "line2": "2 38062  74.0094 303.7202 0012234  72.1633 298.7726 14.94290132629324"}}, "geometry": {"type": "Point", "coordinates": [147.21235890982726, -62.837967207203114]}}, {"type": "Feature", "properties": {"norad_id": 38064, "name": "COSMOS 2251 DEB", "group": "cosmos-2251-debris", "lat": -3.520781413222953, "lon": 125.72169626671435, "alt_km": 719.7110013117172, "timestamp": "2025-12-11T08:58:27.523507+00:00", "meta": {"OBJECT_NAME": "COSMOS 2251 DEB", "OBJECT_ID": "1993-036BRW", "EPOCH": "2025-12-08T19:59:17.678400", "MEAN_MOTION": 14.56247306, "ECCENTRICITY": 0.00475278, "INCLINATION": 74.0223, "RA_OF_ASC_NODE": 131.5539, "ARG_OF_PERICENTER": 251.7836, "MEAN_ANOMALY": 107.8151, "EPHEMERIS_TYPE": 0, "CLASSIFICATION_TYPE": "U", "NORAD_CAT_ID": 38064, "ELEMENT_SET_NO": 999, "REV_AT_EPOCH": 71808, "BSTAR": 0.0016943453, "MEAN_MOTION_DOT": 7.589e-05, "MEAN_MOTION_DDOT": 0}, "tle": {"line1": "1 38064U 93036BRW 25342.83284350  .00007589  00000+0  16943-2 0  9994", "line2": "2 38064  74.0223 131.5539 0047527 251.7836 107.8151 14.56247306718080"}}, "geometry": {"type": "Point", "coordinates": [125.72169626671435, -3.520781413222953]}}, {"type": "Feature", "properties": {"norad_id": 38067, "name": "COSMOS 2251 DEB", "group": "cosmos-2251-debris", "lat": -45.95127103664034, "lon": -100.11833164588224, "alt_km": 715.2741227379556, "timestamp": "2025-12-11T08:58:27.523517+00:00", "meta": {"OBJECT_NAME": "COSMOS 2251 DEB", "OBJECT_ID": "1993-036BRZ", "EPOCH": "2025-12-10T12:23:14.076960", "MEAN_MOTION": 14.61112696, "ECCENTRICITY": 0.00693453, "INCLINATION": 74.0167, "RA_OF_ASC_NODE": 278.7582, "ARG_OF_PERICENTER": 67.0924, "MEAN_ANOMALY": 55.1724, "EPHEMERIS_TYPE": 0, "CLASSIFICATION_TYPE": "U", "NORAD_CAT_ID": 38067, "ELEMENT_SET_NO": 999, "REV_AT_EPOCH": 62523, "BSTAR": 0.00060560442, "MEAN_MOTION_DOT": 3.051e-05, "MEAN_MOTION_DDOT": 0}, "tle": {"line1": "1 38067U 93036BRZ 25344.51613515  .00003051  00000+0  60560-3 0  9998", "line2": "2 38067  74.0167 278.7582 0069345  67.0924  55.1724 14.61112696625234"}}, "geometry": {"type": "Point", "coordinates": [-100.11833164588224, -45.95127103664034]}}]}